ZHUHAI-1 02 (CAS-4B)    
1 42759U 17034B   23195.50178647  .00009528  00000+0  47173-3 0  9998
2 42759  43.0166 323.7903 0012248 277.9536  81.9922 15.17880575335786
ZHUHAI-1 01 (CAS-4A)    
1 42761U 17034D   23195.51782535  .00008305  00000+0  41268-3 0  9990
2 42761  43.0157 322.2289 0013016 279.3929  80.5448 15.17879365335790
MAX VALIER SAT          
1 42778U 17036P   23194.62076551  .00022367  00000+0  55896-3 0  9991
2 42778  97.1529 228.8592 0007472  24.4903 335.6697 15.40122339336798
RADFXSAT (FOX-1B)       
1 43017U 17073E   23194.64315344  .00007382  00000+0  51371-3 0  9991
2 43017  97.6279  77.9377 0231465 342.3542  16.9728 14.86549263305112
FOX-1D (AO-92)          
1 43137U 18004AC  23194.65392050  .00033361  00000+0  63929-3 0  9997
2 43137  97.3279 274.1670 0005159  58.2626 301.9127 15.47943720306399
DIWATA-2B               
1 43678U 18084H   23195.45734190  .00001388  00000+0  13744-3 0  9993
2 43678  98.0262 339.9820 0010809  74.2011 286.0399 14.93519730256332
ES'HAIL 2               
1 43700U 18090A   23194.95147494  .00000144  00000+0  00000+0 0  9991
2 43700   0.0233  34.5513 0001790 126.3957 138.9435  1.00269405 17193
FOX-1CLIFF (AO-95)      
1 43770U 18099N   23194.70914765  .00005243  00000+0  42409-3 0  9991
2 43770  97.5687 255.5251 0014914  58.8995 301.3690 15.00102604251585
ITASAT 1                
1 43786U 18099AE  23194.65068001  .00004748  00000+0  38816-3 0  9991
2 43786  97.5737 256.5021 0015010  47.2226 313.0257 14.99741078251615
JY1SAT (JO-97)          
1 43803U 18099AX  23194.64736266  .00005686  00000+0  44701-3 0  9997
2 43803  97.5732 256.5448 0015141  13.4338 346.7287 15.01163307251665
UWE-4                   
1 43880U 18111E   23194.66536257  .00006132  00000+0  46379-3 0  9997
2 43880  97.6351  99.4381 0021310  84.8292 275.5364 15.02515128246341
NEXUS (FO-99)           
1 43937U 19003F   23194.62189327  .00060717  00000+0  86532-3 0  9993
2 43937  97.0833 221.5586 0013420 166.7345 193.4266 15.56020435250154
JAISAT-1                
1 44419U 19038F   23194.69799367  .00021812  00000+0  71722-3 0  9993
2 44419  97.6733 177.3266 0013834 196.4082 163.6712 15.31464064222590
DUCHIFAT-3              
1 44854U 19089C   23195.51428548  .00008952  00000+0  59547-3 0  9995
2 44854  36.9622 287.9177 0008611 184.0572 176.0103 15.06681007196951
CAS-6 (TIANQIN 1)       
1 44881U 19093C   23195.49585048  .00001032  00000+0  13462-3 0  9994
2 44881  97.8613 273.4830 0014450 354.8592   5.2471 14.82598381192840
RS-44 & BREEZE-KM R/B   
1 44909U 19096E   23193.63210509  .00000013  00000+0 -16198-5 0  9999
2 44909  82.5233 331.0361 0218391 127.3500 234.7716 12.79722048165464
BY70-2                  
1 45857U 20042B   23195.39032513  .00017639  00000+0  17665-2 0  9995
2 45857  97.9263 275.3998 0007492 267.0829  92.9532 14.91428387163597
SALSAT                  
1 46495U 20068K   23194.39979636  .00005114  00000+0  33594-3 0  9992
2 46495  97.7705 142.6852 0016428  36.6438 323.5910 15.07969075153027
RADFXSAT-2 (AO-109)     
1 47311U 21002C   23194.67408834  .00026920  00000+0  66649-3 0  9992
2 47311  60.6812 316.6128 0006509 226.2318 133.8240 15.40333006138370
UVSQ-SAT                
1 47438U 21006AB  23194.67461944  .00013778  00000+0  55101-3 0  9995
2 47438  97.3831 251.4116 0008733 358.4791   1.6419 15.25177629136687
DIY-1 (ARDUIQUBE)       
1 47963U 21022AH  23195.28891792  .01090070  50238-3  39752-2 0  9998
2 47963  97.4835 105.9677 0015023 159.2741 200.9143 15.88323759126854
LEDSAT                  
1 49069U 21073D   23195.14509805  .00008468  00000+0  45848-3 0  9990
2 49069  97.4817 265.5687 0024094  30.7704 329.4935 15.14623237104986
XW-3 (CAS-9)            
1 50466U 21131B   23195.49722965  .00000649  00000+0  22494-3 0  9995
2 50466  98.5520 276.9580 0005290  67.4682 292.7065 14.38959370 81287
TEVEL-3                 
1 50988U 22002E   23195.46427338  .00022465  00000+0  87052-3 0  9996
2 50988  97.4326 262.2599 0009013 135.3499 224.8467 15.26125050 82926
TEVEL-8                 
1 50989U 22002F   23195.41865429  .00020727  00000+0  80531-3 0  9993
2 50989  97.4342 262.2768 0009018 134.8161 225.3811 15.26052443 82911
TEVEL-5                 
1 50998U 22002Q   23195.45935709  .00022285  00000+0  84099-3 0  9990
2 50998  97.4322 262.6715 0010183 131.0596 229.1525 15.26995366 82959
TEVEL-6                 
1 50999U 22002R   23195.45787240  .00023232  00000+0  87646-3 0  9990
2 50999  97.4319 262.6643 0010152 130.6662 229.5460 15.26997023 82955
TEVEL-1                 
1 51013U 22002AF  23195.47492161  .00022316  00000+0  86608-3 0  9994
2 51013  97.4319 262.2093 0008909 135.1122 225.0839 15.26075656 82923
TEVEL-7                 
1 51062U 22002CG  23195.48486615  .00022405  00000+0  86942-3 0  9996
2 51062  97.4338 262.3151 0008974 134.3119 225.8857 15.26078516 82929
TEVEL-4                 
1 51063U 22002CH  23195.49193212  .00021605  00000+0  84007-3 0  9997
2 51063  97.4337 262.3034 0009022 134.2149 225.9832 15.26019024 82929
TEVEL-2                 
1 51069U 22002CP  23195.46602211  .00022616  00000+0  87619-3 0  9999
2 51069  97.4324 262.2321 0008947 135.2761 224.9200 15.26130169 82927
GREENCUBE               
1 53106U 22080B   23192.33245448 -.00000003  00000+0  00000+0 0  9999
2 53106  70.1633 311.3291 0008591 181.2568 178.8071  6.42556799 23304
CYCLOPS (RS29S SXC3-21*)
1 53373U 22096D   23195.43163721  .00034899  00000+0  85504-3 0  9994
2 53373  97.4110 102.0699 0003556  95.4590 264.7061 15.40660707 51887
MONITOR-1 (RS32S SXC3-*)
1 53374U 22096E   23195.41694625  .00030060  00000+0  76174-3 0  9994
2 53374  97.4087 101.8868 0003697  87.2991 272.8677 15.39663220 51879
KUZBASS-300 (RS34S SXC*)
1 53375U 22096F   23195.41006843  .00026922  00000+0  73392-3 0  9995
2 53375  97.4118 101.4940 0003432  83.7671 276.3964 15.37435628 51847
UTMN (RS23S SXC3-216)   
1 53376U 22096G   23195.42285819  .00027316  00000+0  73113-3 0  9998
2 53376  97.4113 101.6212 0003388  87.8483 272.3149 15.38000837 51856
MIET-AIS (RS28S SXC3-2*)
1 53377U 22096H   23195.42869308  .00023691  00000+0  65809-3 0  9995
2 53377  97.4126 101.4800 0003259  82.4417 277.7197 15.36877165 51842
KAI-1 (RS26S)           
1 53378U 22096J   23195.42929080  .00019729  00000+0  57751-3 0  9994
2 53378  97.4141 101.1955 0003019  80.4140 279.7444 15.35273853 51821
ISOI (RS19S SXC3-219)   
1 53381U 22096M   23195.36125459  .00024035  00000+0  64901-3 0  9990
2 53381  97.4115 101.6991 0002121  23.5354 336.5987 15.37757362 51850
CUBESX-HSE-2 (RS21S)    
1 53383U 22096P   23195.39070384  .00025662  00000+0  68109-3 0  9992
2 53383  97.4117 101.8247 0002418  16.4732 343.6591 15.38277044 51866
SIREN (RS30S SXC3-217)  
1 53384U 22096Q   23195.45086291  .00022134  00000+0  62102-3 0  9992
2 53384  97.4131 101.6106 0002294   7.5442 352.5836 15.36581057 51856
GEOSCAN-EDELVEIS (RS20S)
1 53385U 22096R   23195.43580780  .00036362  00000+0  84565-3 0  9998
2 53385  97.4098 102.6518 0001763   3.6193 356.5067 15.42231708 51950
VIZARD (RS33S SXC3-215) 
1 53386U 22096S   23195.40790696  .00051354  00000+0  10258-2 0  9990
2 53386  97.4097 103.4494 0001990  23.7214 336.4127 15.46657071 51998
CAS-5A (FO-118)         
1 54684U 22167C   23195.43266255  .00010736  00000+0  58372-3 0  9992
2 54684  97.5650 332.8381 0012521 236.9739 123.0290 15.14595105 32805
STRATOSAT-TK 1 (RS52S)  
1 57167U 23091B   23195.38516158  .00006986  00000+0  51731-3 0  9996
2 57167  97.6634 245.9325 0018321 187.5216 172.5737 15.03320177  2528
UMKA 1 (RS40S)          
1 57172U 23091G   23195.38394653  .00003281  00000+0  24497-3 0  9990
2 57172  97.6631 245.9338 0018083 187.1578 172.9392 15.03407150  2525
CUBESX-HSE 3 (RS42S)    
1 57178U 23091N   23195.38597763  .00004542  00000+0  33857-3 0  9994
2 57178  97.6669 245.9438 0019426 181.7231 178.3931 15.03243997  2527
MONITOR-4 (RS57S)       
1 57182U 23091S   23195.38653106  .00004268  00000+0  31889-3 0  9991
2 57182  97.6660 245.9417 0019587 182.4743 177.6389 15.03190123  2525
MONITOR-2 (RS39S)       
1 57184U 23091U   23195.37628290  .00002893  00000+0  21287-3 0  9991
2 57184  97.6655 245.9477 0015384 177.5201 182.6103 15.04083995  2521
SVYATOBOR 1 (RS60S)     
1 57187U 23091X   23195.44094280  .00004298  00000+0  31250-3 0  9990
2 57187  97.6656 246.0157 0015329 175.9829 184.1523 15.04268337  2538
VIZARD-METEO (RS38S)    
1 57189U 23091Z   23195.43763774  .00005713  00000+0  41054-3 0  9998
2 57189  97.6649 246.0176 0014473 174.6581 185.4802 15.04580674  2538
NANOZOND 1 (RS49S)      
1 57190U 23091AA  23195.43580002  .00007381  00000+0  52658-3 0  9996
2 57190  97.6624 246.0091 0013157 180.2780 179.8441 15.04770499  2533
UTMN 2 (RS27S)          
1 57203U 23091AP  23195.43837393  .00005257  00000+0  37889-3 0  9998
2 57203  97.6648 246.0170 0014758 174.8220 185.3161 15.04508595  2535
ARCCUBE 1 (RS25S)       
1 57205U 23091AR  23195.37005313  .00008071  00000+0  57618-3 0  9991
2 57205  97.6607 245.9390 0013511 182.4644 177.6518 15.04712558  2520
KUZGTU 1 (RS47S)        
1 57217U 23091AV  23195.38543779  .00004529  00000+0  33721-3 0  9991
2 57217  97.6644 245.9390 0019237 183.2046 176.9059 15.03290411  2520
